[{"OBJECT_NAME":"GAOFEN-3 03","OBJECT_ID":"2022-035A","EPOCH":"2026-03-10T00:27:29.452896","MEAN_MOTION":14.42227519,"ECCENTRICITY":0.00014785,"INCLINATION":98.411,"RA_OF_ASC_NODE":79.0226,"ARG_OF_PERICENTER":98.2358,"MEAN_ANOMALY":261.8999,"EPHEMERIS_TYPE":0,"CLASSIFICATION_TYPE":"U","NORAD_CAT_ID":52200,"ELEMENT_SET_NO":999,"REV_AT_EPOCH":20655,"BSTAR":-2.1725867e-5,"MEAN_MOTION_DOT":-1.15e-6,"MEAN_MOTION_DDOT":0},{"OBJECT_NAME":"UNKNOWN","OBJECT_ID":"","EPOCH":"2026-03-09T04:07:28.221024","MEAN_MOTION":14.39475185,"ECCENTRICITY":0.0205861,"INCLINATION":97.739,"RA_OF_ASC_NODE":141.0566,"ARG_OF_PERICENTER":24.2005,"MEAN_ANOMALY":336.8689,"EPHEMERIS_TYPE":0,"CLASSIFICATION_TYPE":"U","NORAD_CAT_ID":82073,"ELEMENT_SET_NO":999,"REV_AT_EPOCH":58755,"BSTAR":0.00062271,"MEAN_MOTION_DOT":2.445e-5,"MEAN_MOTION_DDOT":0}]
